{
  "type": "FeatureCollection",
  "features": [
    {
      "type": "Feature",
      "geometry": {
        "type": "Polygon",
        "coordinates": [
          [
            [
              37.6215609824,
              55.7509161476
            ],
            [
              37.6218795221,
              55.7509197206
            ],
            [
              37.6218700204,
              55.7511892019
            ],
            [
              37.6215514785,
              55.7511856289
            ],
            [
              37.6215609824,
              55.7509161476
            ]
          ]
        ]
      },
      "properties": {
        "BID": "BLD-RAW-001",
        "NAME_RU": "Искусственный импортируемый объект",
        "HEIGHT_CM": "1200",
        "STATUS": "EXIST"
      }
    }
  ]
}
